0 DELTA 1 DEB
1 39097U 73086HK  13281.14871004 -.00000043  00000-0  57795-5 0   382
2 39097 101.9893 256.7315 0031326 032.8833 327.4256 12.33833851473552
0 DELTA 1 DEB
1 39097U 73086HK  13284.14872572 -.00000043  00000-0  57795-5 0   397
2 39097 101.9882 259.6486 0031373 027.6606 332.6116 12.33834013473928
0 DELTA 1 DEB
1 39097U 73086HK  13287.14873877 -.00000043  00000-0  57795-5 0   401
2 39097 101.9862 262.5666 0030509 022.8269 337.4141 12.33834439474295
0 DELTA 1 DEB
1 39097U 73086HK  13289.17577837 -.00000043  00000-0  57795-5 0   414
2 39097 101.9841 264.5324 0031076 017.9091 342.3049 12.33834585474545
0 DELTA 1 DEB
1 39097U 73086HK  13290.14875676 -.00000043  00000-0  57795-5 0   426
2 39097 101.9807 265.4728 0032417 017.1279 343.0527 12.33834022474663
0 DELTA 1 DEB
1 39097U 73086HK  13292.74337400 -.00000043  00000-0  57795-5 0   433
2 39097 101.9814 267.9924 0032952 012.3780 347.8070 12.33834169474986
